{
"type": "FeatureCollection",
"features": [
{
  "type": "Feature",
  "id": "relation/1315084",
  "properties": {
    "DANE:area": "363.00",
    "DANE:departamento": "68",
    "admin_level": "6",
    "boundary": "administrative",
    "clcfile": "MunicipiosDepartamentos/ADM_Municipios.shp",
    "divipola": "68895",
    "entidad_te": "Cabecera Municipal",
    "is_in:country": "Colombia",
    "is_in:state": "Santander",
    "name": "Zapatoca",
    "objectid": "3717",
    "source": "OCHA - SIGOT",
    "type": "boundary",
    "wikidata": "Q1574792",
    "wikipedia": "es:Zapatoca",
    "id": "relation/1315084"
  },
  "geometry": {
    "type": "Polygon",
    "coordinates": [
      [
        [
          -73.1758853,
          6.8842284
        ],
        [
          -73.1761151,
          6.885718
        ],
        [
          -73.17648,
          6.8875834
        ],
        [
          -73.1771018,
          6.8888314
        ],
        [
          -73.1798501,
          6.8917368
        ],
        [
          -73.1834174,
          6.8958109
        ],
        [
          -73.1842543,
          6.8994749
        ],
        [
          -73.1855096,
          6.9014932
        ],
        [
          -73.1878537,
          6.9027554
        ],
        [
          -73.1893998,
          6.9026543
        ],
        [
          -73.1903161,
          6.9019747
        ],
        [
          -73.1916261,
          6.9016584
        ],
        [
          -73.1933115,
          6.901702
        ],
        [
          -73.1962985,
          6.9028566
        ],
        [
          -73.1983262,
          6.903533
        ],
        [
          -73.1992779,
          6.9040293
        ],
        [
          -73.2013035,
          6.9051786
        ],
        [
          -73.2027035,
          6.9070062
        ],
        [
          -73.2043129,
          6.9091833
        ],
        [
          -73.2056208,
          6.9114839
        ],
        [
          -73.2085079,
          6.9154726
        ],
        [
          -73.2100368,
          6.9172567
        ],
        [
          -73.211748,
          6.9188276
        ],
        [
          -73.2133734,
          6.9207661
        ],
        [
          -73.2148057,
          6.9227897
        ],
        [
          -73.216297,
          6.9246748
        ],
        [
          -73.2165813,
          6.9254736
        ],
        [
          -73.2171811,
          6.9260168
        ],
        [
          -73.2175235,
          6.9254162
        ],
        [
          -73.2177615,
          6.9250902
        ],
        [
          -73.2181254,
          6.9248596
        ],
        [
          -73.2185985,
          6.9239764
        ],
        [
          -73.219138,
          6.9232506
        ],
        [
          -73.2196982,
          6.9225407
        ],
        [
          -73.2202726,
          6.9218421
        ],
        [
          -73.2208546,
          6.9211498
        ],
        [
          -73.2214379,
          6.9204586
        ],
        [
          -73.222016,
          6.9197632
        ],
        [
          -73.2225836,
          6.9190591
        ],
        [
          -73.2231328,
          6.9183406
        ],
        [
          -73.22366,
          6.9176059
        ],
        [
          -73.2241733,
          6.9168613
        ],
        [
          -73.2247109,
          6.9161252
        ],
        [
          -73.2249222,
          6.9152723
        ],
        [
          -73.2249892,
          6.9143687
        ],
        [
          -73.2251225,
          6.9134748
        ],
        [
          -73.2253685,
          6.9126048
        ],
        [
          -73.2256969,
          6.9117623
        ],
        [
          -73.2260932,
          6.9109497
        ],
        [
          -73.226582,
          6.9101891
        ],
        [
          -73.2271226,
          6.9094639
        ],
        [
          -73.2276899,
          6.9087597
        ],
        [
          -73.2282807,
          6.908075
        ],
        [
          -73.2288769,
          6.9073949
        ],
        [
          -73.229479,
          6.90672
        ],
        [
          -73.2300839,
          6.9060477
        ],
        [
          -73.2306879,
          6.9053745
        ],
        [
          -73.2318778,
          6.905108
        ],
        [
          -73.2327627,
          6.9049156
        ],
        [
          -73.2336462,
          6.9047184
        ],
        [
          -73.2345258,
          6.9045076
        ],
        [
          -73.2353987,
          6.9042747
        ],
        [
          -73.2362572,
          6.9039934
        ],
        [
          -73.2371035,
          6.9036708
        ],
        [
          -73.2379494,
          6.9033466
        ],
        [
          -73.2388361,
          6.9031039
        ],
        [
          -73.239638,
          6.902798
        ],
        [
          -73.2400413,
          6.9019847
        ],
        [
          -73.2404763,
          6.9011776
        ],
        [
          -73.2409825,
          6.9004278
        ],
        [
          -73.2414557,
          6.8996573
        ],
        [
          -73.2418762,
          6.8988561
        ],
        [
          -73.242161,
          6.8980012
        ],
        [
          -73.2422224,
          6.8970998
        ],
        [
          -73.2422453,
          6.896196
        ],
        [
          -73.2424923,
          6.8953373
        ],
        [
          -73.2431191,
          6.8946824
        ],
        [
          -73.243887,
          6.8941759
        ],
        [
          -73.2441543,
          6.8933401
        ],
        [
          -73.2443852,
          6.892461
        ],
        [
          -73.2448025,
          6.8916596
        ],
        [
          -73.2452731,
          6.8908874
        ],
        [
          -73.2457685,
          6.8901308
        ],
        [
          -73.246284,
          6.8893878
        ],
        [
          -73.2468146,
          6.8886555
        ],
        [
          -73.247361,
          6.8879346
        ],
        [
          -73.2479814,
          6.8872783
        ],
        [
          -73.2486504,
          6.8866679
        ],
        [
          -73.2491737,
          6.8859305
        ],
        [
          -73.2496688,
          6.8851682
        ],
        [
          -73.2501802,
          6.8844208
        ],
        [
          -73.2507518,
          6.8837274
        ],
        [
          -73.2514175,
          6.8831186
        ],
        [
          -73.2521282,
          6.8825502
        ],
        [
          -73.2528137,
          6.8819594
        ],
        [
          -73.2533298,
          6.8812181
        ],
        [
          -73.2538312,
          6.8804655
        ],
        [
          -73.2543017,
          6.8796933
        ],
        [
          -73.2547495,
          6.8789077
        ],
        [
          -73.2551864,
          6.8781159
        ],
        [
          -73.255628,
          6.8773268
        ],
        [
          -73.2560717,
          6.8765388
        ],
        [
          -73.2565063,
          6.8757459
        ],
        [
          -73.2569236,
          6.8749437
        ],
        [
          -73.2573081,
          6.8741253
        ],
        [
          -73.2575874,
          6.8732666
        ],
        [
          -73.2578206,
          6.8723905
        ],
        [
          -73.2578137,
          6.8714899
        ],
        [
          -73.2577929,
          6.8705847
        ],
        [
          -73.2578997,
          6.8696876
        ],
        [
          -73.2580528,
          6.8687965
        ],
        [
          -73.2582197,
          6.8679079
        ],
        [
          -73.2583961,
          6.8670211
        ],
        [
          -73.2585792,
          6.8661356
        ],
        [
          -73.2587653,
          6.8652508
        ],
        [
          -73.2589506,
          6.8643658
        ],
        [
          -73.2591342,
          6.8634805
        ],
        [
          -73.2593103,
          6.8625937
        ],
        [
          -73.2594761,
          6.8617048
        ],
        [
          -73.259613,
          6.8608113
        ],
        [
          -73.2597053,
          6.8599118
        ],
        [
          -73.2597936,
          6.859012
        ],
        [
          -73.2612503,
          6.8587994
        ],
        [
          -73.2621357,
          6.8586148
        ],
        [
          -73.2629614,
          6.8582502
        ],
        [
          -73.2636735,
          6.8576932
        ],
        [
          -73.2642718,
          6.857016
        ],
        [
          -73.2647228,
          6.8562329
        ],
        [
          -73.2650874,
          6.8554049
        ],
        [
          -73.2654701,
          6.8545859
        ],
        [
          -73.2658512,
          6.8537659
        ],
        [
          -73.2662637,
          6.8529615
        ],
        [
          -73.2667452,
          6.8521956
        ],
        [
          -73.2672946,
          6.8514765
        ],
        [
          -73.2679936,
          6.8509062
        ],
        [
          -73.2688046,
          6.8505064
        ],
        [
          -73.2696558,
          6.8502
        ],
        [
          -73.2705198,
          6.8499225
        ],
        [
          -73.2714191,
          6.8499144
        ],
        [
          -73.2727034,
          6.8511088
        ],
        [
          -73.272881,
          6.8519836
        ],
        [
          -73.272796,
          6.8528838
        ],
        [
          -73.2727615,
          6.8537848
        ],
        [
          -73.2729563,
          6.8546672
        ],
        [
          -73.2732701,
          6.8555155
        ],
        [
          -73.273642,
          6.8563397
        ],
        [
          -73.2740483,
          6.8571476
        ],
        [
          -73.2744943,
          6.857934
        ],
        [
          -73.2750158,
          6.8586725
        ],
        [
          -73.2755948,
          6.8593672
        ],
        [
          -73.276192,
          6.8600463
        ],
        [
          -73.2767942,
          6.8607211
        ],
        [
          -73.2774214,
          6.8613727
        ],
        [
          -73.2780913,
          6.8619801
        ],
        [
          -73.2788298,
          6.8624994
        ],
        [
          -73.2796766,
          6.8628134
        ],
        [
          -73.280556,
          6.8630288
        ],
        [
          -73.2814123,
          6.8633196
        ],
        [
          -73.2822618,
          6.8636305
        ],
        [
          -73.2831059,
          6.8639559
        ],
        [
          -73.28393,
          6.864329
        ],
        [
          -73.2847019,
          6.8647982
        ],
        [
          -73.2853408,
          6.8654384
        ],
        [
          -73.2859001,
          6.8661496
        ],
        [
          -73.2863777,
          6.8669169
        ],
        [
          -73.2868987,
          6.8676552
        ],
        [
          -73.2875771,
          6.868262
        ],
        [
          -73.2884271,
          6.8683905
        ],
        [
          -73.2891117,
          6.8678093
        ],
        [
          -73.2896219,
          6.8670608
        ],
        [
          -73.2903729,
          6.8665659
        ],
        [
          -73.29125,
          6.8663381
        ],
        [
          -73.2921461,
          6.8662099
        ],
        [
          -73.2930485,
          6.8661481
        ],
        [
          -73.2939482,
          6.8662292
        ],
        [
          -73.2948035,
          6.8665207
        ],
        [
          -73.2956059,
          6.8669394
        ],
        [
          -73.2964063,
          6.8673607
        ],
        [
          -73.2964163,
          6.8673634
        ],
        [
          -73.2964261,
          6.8673882
        ],
        [
          -73.2964174,
          6.8674104
        ],
        [
          -73.2964007,
          6.8674277
        ],
        [
          -73.2963883,
          6.8674444
        ],
        [
          -73.2963845,
          6.867463
        ],
        [
          -73.296382,
          6.8674821
        ],
        [
          -73.296382,
          6.8675087
        ],
        [
          -73.296385,
          6.8675409
        ],
        [
          -73.2963918,
          6.8675626
        ],
        [
          -73.2963942,
          6.8675727
        ],
        [
          -73.2966256,
          6.8679351
        ],
        [
          -73.2968496,
          6.8683034
        ],
        [
          -73.2970783,
          6.8686679
        ],
        [
          -73.2973093,
          6.869031
        ],
        [
          -73.2975399,
          6.8693945
        ],
        [
          -73.2977626,
          6.8697627
        ],
        [
          -73.2979881,
          6.8701319
        ],
        [
          -73.2982119,
          6.8705026
        ],
        [
          -73.2984189,
          6.8708796
        ],
        [
          -73.2985914,
          6.8712686
        ],
        [
          -73.2986709,
          6.8716908
        ],
        [
          -73.2987261,
          6.8721216
        ],
        [
          -73.2988761,
          6.8729691
        ],
        [
          -73.2989087,
          6.8733978
        ],
        [
          -73.2989251,
          6.8738311
        ],
        [
          -73.2989169,
          6.8742603
        ],
        [
          -73.2988398,
          6.8746809
        ],
        [
          -73.2986887,
          6.8750895
        ],
        [
          -73.2984288,
          6.8754132
        ],
        [
          -73.2983351,
          6.8765326
        ],
        [
          -73.2983395,
          6.877485
        ],
        [
          -73.2982381,
          6.8784378
        ],
        [
          -73.2979243,
          6.8792859
        ],
        [
          -73.297717,
          6.8802392
        ],
        [
          -73.2977205,
          6.8809799
        ],
        [
          -73.2975097,
          6.8811926
        ],
        [
          -73.2975141,
          6.8821449
        ],
        [
          -73.2982577,
          6.8826706
        ],
        [
          -73.2982582,
          6.8827764
        ],
        [
          -73.299385,
          6.882995
        ],
        [
          -73.2998072,
          6.8830811
        ],
        [
          -73.3002277,
          6.8831731
        ],
        [
          -73.3006389,
          6.8832975
        ],
        [
          -73.3010442,
          6.8834421
        ],
        [
          -73.3014472,
          6.8835942
        ],
        [
          -73.301851,
          6.8837439
        ],
        [
          -73.302259,
          6.8838809
        ],
        [
          -73.30268,
          6.8839729
        ],
        [
          -73.3031103,
          6.8840014
        ],
        [
          -73.3035415,
          6.8839889
        ],
        [
          -73.3039645,
          6.8839198
        ],
        [
          -73.3043834,
          6.8838151
        ],
        [
          -73.3047959,
          6.8836889
        ],
        [
          -73.3052023,
          6.8835479
        ],
        [
          -73.3056042,
          6.8833923
        ],
        [
          -73.3060009,
          6.8832247
        ],
        [
          -73.3063907,
          6.8830428
        ],
        [
          -73.3067702,
          6.8828386
        ],
        [
          -73.3071358,
          6.8826119
        ],
        [
          -73.30748,
          6.8823509
        ],
        [
          -73.3078617,
          6.8821586
        ],
        [
          -73.3082672,
          6.88201
        ],
        [
          -73.3086722,
          6.8818635
        ],
        [
          -73.3090786,
          6.8817219
        ],
        [
          -73.3094839,
          6.881576
        ],
        [
          -73.3099093,
          6.8815151
        ],
        [
          -73.3103381,
          6.8814687
        ],
        [
          -73.3107504,
          6.881343
        ],
        [
          -73.3111575,
          6.8811911
        ],
        [
          -73.3115728,
          6.8810966
        ],
        [
          -73.3119996,
          6.8810831
        ],
        [
          -73.3124316,
          6.8811062
        ],
        [
          -73.3128645,
          6.8811341
        ],
        [
          -73.3132946,
          6.881135
        ],
        [
          -73.3137173,
          6.8810691
        ],
        [
          -73.3141356,
          6.8809581
        ],
        [
          -73.3145577,
          6.8808729
        ],
        [
          -73.314984,
          6.8808131
        ],
        [
          -73.315411,
          6.8807558
        ],
        [
          -73.315809,
          6.8805936
        ],
        [
          -73.316207,
          6.8804319
        ],
        [
          -73.3166418,
          6.8804111
        ],
        [
          -73.3170664,
          6.8803644
        ],
        [
          -73.3175665,
          6.8795515
        ],
        [
          -73.3182961,
          6.8805208
        ],
        [
          -73.3184709,
          6.8808723
        ],
        [
          -73.3185911,
          6.8812238
        ],
        [
          -73.3185792,
          6.8814233
        ],
        [
          -73.3184703,
          6.8815986
        ],
        [
          -73.3183524,
          6.8817259
        ],
        [
          -73.3181981,
          6.8818231
        ],
        [
          -73.3179441,
          6.8820281
        ],
        [
          -73.3176416,
          6.8822783
        ],
        [
          -73.3176201,
          6.8825121
        ],
        [
          -73.3176636,
          6.8826947
        ],
        [
          -73.3176405,
          6.8828593
        ],
        [
          -73.3177215,
          6.8829539
        ],
        [
          -73.3179562,
          6.8832092
        ],
        [
          -73.3180526,
          6.8834481
        ],
        [
          -73.3180481,
          6.8838243
        ],
        [
          -73.3179762,
          6.8841598
        ],
        [
          -73.3179771,
          6.8845013
        ],
        [
          -73.3180756,
          6.8851603
        ],
        [
          -73.3181643,
          6.8856914
        ],
        [
          -73.3184136,
          6.8862766
        ],
        [
          -73.3184099,
          6.8866601
        ],
        [
          -73.3182098,
          6.8870749
        ],
        [
          -73.3180218,
          6.8875349
        ],
        [
          -73.3179429,
          6.8878236
        ],
        [
          -73.3180701,
          6.8881003
        ],
        [
          -73.3182245,
          6.88838
        ],
        [
          -73.318345,
          6.8889147
        ],
        [
          -73.3183897,
          6.8892117
        ],
        [
          -73.3184152,
          6.8894529
        ],
        [
          -73.3185581,
          6.8895434
        ],
        [
          -73.318512,
          6.8897299
        ],
        [
          -73.3184235,
          6.8898503
        ],
        [
          -73.3184318,
          6.8908465
        ],
        [
          -73.3186648,
          6.8917679
        ],
        [
          -73.3185474,
          6.8923314
        ],
        [
          -73.318535,
          6.8925547
        ],
        [
          -73.3186018,
          6.8927405
        ],
        [
          -73.3185204,
          6.8931553
        ],
        [
          -73.3185113,
          6.8935722
        ],
        [
          -73.3185077,
          6.8938228
        ],
        [
          -73.318489,
          6.8940135
        ],
        [
          -73.3182043,
          6.8942282
        ],
        [
          -73.3179171,
          6.8944145
        ],
        [
          -73.3178583,
          6.8945972
        ],
        [
          -73.3179314,
          6.8947568
        ],
        [
          -73.3181191,
          6.8949322
        ],
        [
          -73.3181974,
          6.8951381
        ],
        [
          -73.3182171,
          6.8954139
        ],
        [
          -73.3183066,
          6.8957719
        ],
        [
          -73.3185503,
          6.8960739
        ],
        [
          -73.3187629,
          6.8962783
        ],
        [
          -73.3189508,
          6.8963544
        ],
        [
          -73.3191698,
          6.8963791
        ],
        [
          -73.3195507,
          6.8963823
        ],
        [
          -73.3196797,
          6.8964433
        ],
        [
          -73.3197569,
          6.896571
        ],
        [
          -73.319813,
          6.8968008
        ],
        [
          -73.3198545,
          6.8970249
        ],
        [
          -73.3197689,
          6.8972089
        ],
        [
          -73.3197728,
          6.8973264
        ],
        [
          -73.3198347,
          6.8974248
        ],
        [
          -73.3201318,
          6.8974809
        ],
        [
          -73.3203966,
          6.8975658
        ],
        [
          -73.3208297,
          6.8978506
        ],
        [
          -73.3215845,
          6.8981009
        ],
        [
          -73.3218581,
          6.8987932
        ],
        [
          -73.3235747,
          6.8995761
        ],
        [
          -73.3240038,
          6.9000288
        ],
        [
          -73.3241916,
          6.9005933
        ],
        [
          -73.3239824,
          6.9013655
        ],
        [
          -73.3235264,
          6.9017915
        ],
        [
          -73.3236283,
          6.9019832
        ],
        [
          -73.3242506,
          6.9020631
        ],
        [
          -73.3245832,
          6.9022335
        ],
        [
          -73.3244437,
          6.9026702
        ],
        [
          -73.3242023,
          6.903027
        ],
        [
          -73.3240414,
          6.9033572
        ],
        [
          -73.3243418,
          6.9038099
        ],
        [
          -73.3243793,
          6.9044809
        ],
        [
          -73.3239824,
          6.9048324
        ],
        [
          -73.3236122,
          6.9053863
        ],
        [
          -73.3234084,
          6.9061158
        ],
        [
          -73.3233976,
          6.9073088
        ],
        [
          -73.323918,
          6.9080756
        ],
        [
          -73.3240736,
          6.9087307
        ],
        [
          -73.3238804,
          6.9098969
        ],
        [
          -73.3243471,
          6.9113188
        ],
        [
          -73.3249265,
          6.9116224
        ],
        [
          -73.3252752,
          6.9119206
        ],
        [
          -73.3259887,
          6.9123999
        ],
        [
          -73.3264768,
          6.9120484
        ],
        [
          -73.3265948,
          6.9120218
        ],
        [
          -73.326804,
          6.9124372
        ],
        [
          -73.3270669,
          6.912517
        ],
        [
          -73.3272117,
          6.9128898
        ],
        [
          -73.3272976,
          6.9131774
        ],
        [
          -73.32829,
          6.9137366
        ],
        [
          -73.3284348,
          6.9139496
        ],
        [
          -73.3286977,
          6.9134809
        ],
        [
          -73.3291107,
          6.9135023
        ],
        [
          -73.3300602,
          6.9140614
        ],
        [
          -73.3304143,
          6.9144661
        ],
        [
          -73.3308703,
          6.9142425
        ],
        [
          -73.3313209,
          6.9140934
        ],
        [
          -73.3319914,
          6.9146951
        ],
        [
          -73.3319378,
          6.9155259
        ],
        [
          -73.3315033,
          6.916362
        ],
        [
          -73.331396,
          6.9166496
        ],
        [
          -73.3318734,
          6.9171235
        ],
        [
          -73.3324742,
          6.9170596
        ],
        [
          -73.3330214,
          6.9167827
        ],
        [
          -73.3332843,
          6.9169478
        ],
        [
          -73.3333218,
          6.9176454
        ],
        [
          -73.3333808,
          6.9185028
        ],
        [
          -73.3331233,
          6.9192377
        ],
        [
          -73.3332199,
          6.9204678
        ],
        [
          -73.3332789,
          6.9213625
        ],
        [
          -73.3336276,
          6.9222412
        ],
        [
          -73.3336061,
          6.9228802
        ],
        [
          -73.3330965,
          6.9235725
        ],
        [
          -73.3328819,
          6.9241743
        ],
        [
          -73.3333594,
          6.9252287
        ],
        [
          -73.3340889,
          6.9263416
        ],
        [
          -73.3341962,
          6.9268955
        ],
        [
          -73.334105,
          6.9275292
        ],
        [
          -73.3345932,
          6.9286794
        ],
        [
          -73.3350653,
          6.9293983
        ],
        [
          -73.3359665,
          6.9303143
        ],
        [
          -73.3360308,
          6.9306977
        ],
        [
          -73.3373129,
          6.9319491
        ],
        [
          -73.3382034,
          6.9327266
        ],
        [
          -73.3386755,
          6.9333816
        ],
        [
          -73.3392924,
          6.9335254
        ],
        [
          -73.3397591,
          6.9333124
        ],
        [
          -73.3406389,
          6.9332485
        ],
        [
          -73.3411485,
          6.9336106
        ],
        [
          -73.3412772,
          6.9340526
        ],
        [
          -73.3420122,
          6.9340792
        ],
        [
          -73.3423877,
          6.9343401
        ],
        [
          -73.3430046,
          6.9345744
        ],
        [
          -73.3442652,
          6.9348886
        ],
        [
          -73.3452898,
          6.9356608
        ],
        [
          -73.3462769,
          6.9354691
        ],
        [
          -73.3467007,
          6.9354371
        ],
        [
          -73.3481544,
          6.9362039
        ],
        [
          -73.3485246,
          6.9362093
        ],
        [
          -73.3485836,
          6.9358844
        ],
        [
          -73.3485031,
          6.9354637
        ],
        [
          -73.3490449,
          6.9352827
        ],
        [
          -73.3498335,
          6.9353998
        ],
        [
          -73.3502841,
          6.935501
        ],
        [
          -73.3508045,
          6.9362359
        ],
        [
          -73.3518076,
          6.9364862
        ],
        [
          -73.3524835,
          6.9363797
        ],
        [
          -73.3534491,
          6.9367098
        ],
        [
          -73.3541787,
          6.9371784
        ],
        [
          -73.3546151,
          6.9373088
        ],
        [
          -73.3547849,
          6.9373595
        ],
        [
          -73.3548439,
          6.9380624
        ],
        [
          -73.3542323,
          6.9389038
        ],
        [
          -73.3529502,
          6.9394842
        ],
        [
          -73.3525586,
          6.9402883
        ],
        [
          -73.3535135,
          6.9413533
        ],
        [
          -73.3538139,
          6.9417314
        ],
        [
          -73.3532453,
          6.942003
        ],
        [
          -73.3527142,
          6.9421361
        ],
        [
          -73.3522743,
          6.942658
        ],
        [
          -73.3520919,
          6.944149
        ],
        [
          -73.3515877,
          6.946492
        ],
        [
          -73.3517164,
          6.9472216
        ],
        [
          -73.3512712,
          6.9475783
        ],
        [
          -73.3504021,
          6.9489149
        ],
        [
          -73.3498335,
          6.9498362
        ],
        [
          -73.3499301,
          6.9509012
        ],
        [
          -73.3493614,
          6.9522217
        ],
        [
          -73.3479989,
          6.9533187
        ],
        [
          -73.3473873,
          6.9533932
        ],
        [
          -73.3472478,
          6.9543304
        ],
        [
          -73.3473873,
          6.954831
        ],
        [
          -73.3467275,
          6.9560238
        ],
        [
          -73.3465505,
          6.9569689
        ],
        [
          -73.3468938,
          6.9579407
        ],
        [
          -73.3467758,
          6.9582922
        ],
        [
          -73.3462501,
          6.9581324
        ],
        [
          -73.3455849,
          6.9580579
        ],
        [
          -73.3447695,
          6.9581324
        ],
        [
          -73.3435893,
          6.9597832
        ],
        [
          -73.3428168,
          6.9639472
        ],
        [
          -73.3420229,
          6.9652039
        ],
        [
          -73.3418083,
          6.9662688
        ],
        [
          -73.3421731,
          6.9676426
        ],
        [
          -73.3432675,
          6.9682284
        ],
        [
          -73.3438254,
          6.9689206
        ],
        [
          -73.3442545,
          6.9706671
        ],
        [
          -73.3446407,
          6.9715723
        ],
        [
          -73.3444369,
          6.9718811
        ],
        [
          -73.3440077,
          6.9719663
        ],
        [
          -73.3433318,
          6.9719024
        ],
        [
          -73.3417869,
          6.9730739
        ],
        [
          -73.3406067,
          6.9743092
        ],
        [
          -73.3400488,
          6.9749482
        ],
        [
          -73.3401883,
          6.9756937
        ],
        [
          -73.3404243,
          6.9762474
        ],
        [
          -73.3404243,
          6.9772591
        ],
        [
          -73.3399415,
          6.9779726
        ],
        [
          -73.3390725,
          6.9793251
        ],
        [
          -73.3385253,
          6.9802729
        ],
        [
          -73.338418,
          6.9816679
        ],
        [
          -73.3393407,
          6.9828181
        ],
        [
          -73.3406818,
          6.984309
        ],
        [
          -73.3414865,
          6.9854165
        ],
        [
          -73.3415723,
          6.9867583
        ],
        [
          -73.3420873,
          6.9882492
        ],
        [
          -73.342613,
          6.9887816
        ],
        [
          -73.3449841,
          6.9887923
        ],
        [
          -73.3464432,
          6.9898998
        ],
        [
          -73.3474946,
          6.9911777
        ],
        [
          -73.3487713,
          6.9913906
        ],
        [
          -73.3501983,
          6.9918805
        ],
        [
          -73.3509386,
          6.9933607
        ],
        [
          -73.3515179,
          6.9939038
        ],
        [
          -73.3534384,
          6.9932223
        ],
        [
          -73.3544576,
          6.9935311
        ],
        [
          -73.3557665,
          6.9939783
        ],
        [
          -73.3560133,
          6.9937867
        ],
        [
          -73.3566154,
          6.9950973
        ],
        [
          -73.3572698,
          6.995706
        ],
        [
          -73.3581322,
          6.9959975
        ],
        [
          -73.3589937,
          6.9962746
        ],
        [
          -73.3598593,
          6.996538
        ],
        [
          -73.3607252,
          6.9968007
        ],
        [
          -73.3615872,
          6.997076
        ],
        [
          -73.3624401,
          6.9973784
        ],
        [
          -73.3632739,
          6.9977293
        ],
        [
          -73.3640596,
          6.9981775
        ],
        [
          -73.3648139,
          6.9986773
        ],
        [
          -73.3655751,
          6.9991666
        ],
        [
          -73.36638,
          6.9995792
        ],
        [
          -73.3672467,
          6.9998356
        ],
        [
          -73.3681423,
          6.9999682
        ],
        [
          -73.3690431,
          7.0000543
        ],
        [
          -73.3699468,
          7.0001016
        ],
        [
          -73.3708515,
          7.0001221
        ],
        [
          -73.3717564,
          7.000126
        ],
        [
          -73.3726614,
          7.0001244
        ],
        [
          -73.3735663,
          7.0001271
        ],
        [
          -73.3744711,
          7.0001434
        ],
        [
          -73.3753751,
          7.0001852
        ],
        [
          -73.3762767,
          7.0002629
        ],
        [
          -73.377173,
          7.0003948
        ],
        [
          -73.3779303,
          7.0008802
        ],
        [
          -73.3785421,
          7.0015491
        ],
        [
          -73.3794739,
          7.0016973
        ],
        [
          -73.3822663,
          7.0048388
        ],
        [
          -73.3825361,
          7.0072666
        ],
        [
          -73.3841953,
          7.0066057
        ],
        [
          -73.3843431,
          7.0065938
        ],
        [
          -73.3846132,
          7.0060116
        ],
        [
          -73.3847373,
          7.0057097
        ],
        [
          -73.3849519,
          7.004725
        ],
        [
          -73.3850861,
          7.0040863
        ],
        [
          -73.3851409,
          7.0031013
        ],
        [
          -73.385222,
          7.0022762
        ],
        [
          -73.3851963,
          7.0016638
        ],
        [
          -73.3856494,
          7.0003611
        ],
        [
          -73.3860051,
          6.9995347
        ],
        [
          -73.386302,
          6.9987295
        ],
        [
          -73.3869056,
          6.9980496
        ],
        [
          -73.3875336,
          6.9973988
        ],
        [
          -73.3882443,
          6.9968422
        ],
        [
          -73.3890796,
          6.9964118
        ],
        [
          -73.389299,
          6.9956255
        ],
        [
          -73.3893039,
          6.9946938
        ],
        [
          -73.389626,
          6.9938587
        ],
        [
          -73.3901368,
          6.9931095
        ],
        [
          -73.3906688,
          6.992378
        ],
        [
          -73.3912221,
          6.9916626
        ],
        [
          -73.3917908,
          6.9909593
        ],
        [
          -73.3923708,
          6.9902652
        ],
        [
          -73.3929562,
          6.9895757
        ],
        [
          -73.3935441,
          6.9888884
        ],
        [
          -73.3941301,
          6.9881993
        ],
        [
          -73.394708,
          6.9875036
        ],
        [
          -73.3953041,
          6.9868241
        ],
        [
          -73.3960564,
          6.9863212
        ],
        [
          -73.3968343,
          6.9858589
        ],
        [
          -73.397608,
          6.98539
        ],
        [
          -73.398381,
          6.9849199
        ],
        [
          -73.3991545,
          6.9844507
        ],
        [
          -73.3999309,
          6.9839862
        ],
        [
          -73.4007109,
          6.9835278
        ],
        [
          -73.4014968,
          6.9830796
        ],
        [
          -73.4022896,
          6.9826436
        ],
        [
          -73.4030902,
          6.9822222
        ],
        [
          -73.4039005,
          6.9818197
        ],
        [
          -73.4047214,
          6.9814391
        ],
        [
          -73.4055546,
          6.9810862
        ],
        [
          -73.4064165,
          6.9808131
        ],
        [
          -73.4073082,
          6.98066
        ],
        [
          -73.4082102,
          6.9805886
        ],
        [
          -73.4091147,
          6.9805615
        ],
        [
          -73.4100196,
          6.9805405
        ],
        [
          -73.4109237,
          6.9805764
        ],
        [
          -73.411797,
          6.9808079
        ],
        [
          -73.4128232,
          6.9809341
        ],
        [
          -73.4146373,
          6.9821462
        ],
        [
          -73.4156951,
          6.9832061
        ],
        [
          -73.4169047,
          6.9838882
        ],
        [
          -73.4180382,
          6.9848725
        ],
        [
          -73.4188699,
          6.9852517
        ],
        [
          -73.4209877,
          6.9857838
        ],
        [
          -73.4224248,
          6.9861638
        ],
        [
          -73.4231126,
          6.9858296
        ],
        [
          -73.4239705,
          6.9857028
        ],
        [
          -73.4248043,
          6.985281
        ],
        [
          -73.4267533,
          6.9849929
        ],
        [
          -73.4277271,
          6.9847097
        ],
        [
          -73.4287037,
          6.9849832
        ],
        [
          -73.4296788,
          6.9849783
        ],
        [
          -73.4305126,
          6.9845566
        ],
        [
          -73.4314871,
          6.9844125
        ],
        [
          -73.4324623,
          6.9844076
        ],
        [
          -73.4334361,
          6.9841244
        ],
        [
          -73.4344112,
          6.9841195
        ],
        [
          -73.4352436,
          6.9834193
        ],
        [
          -73.4356574,
          6.9825821
        ],
        [
          -73.4363504,
          6.9818826
        ],
        [
          -73.4371842,
          6.9814608
        ],
        [
          -73.4371793,
          6.9804865
        ],
        [
          -73.4367565,
          6.9795142
        ],
        [
          -73.436473,
          6.9785412
        ],
        [
          -73.4364632,
          6.9765925
        ],
        [
          -73.4365977,
          6.9756174
        ],
        [
          -73.4370107,
          6.974641
        ],
        [
          -73.4377031,
          6.9738023
        ],
        [
          -73.4382561,
          6.9729644
        ],
        [
          -73.4386698,
          6.9721271
        ],
        [
          -73.4388043,
          6.971152
        ],
        [
          -73.4393573,
          6.9703141
        ],
        [
          -73.4400504,
          6.9696146
        ],
        [
          -73.4408834,
          6.9690537
        ],
        [
          -73.4417109,
          6.9673792
        ],
        [
          -73.4422639,
          6.9665412
        ],
        [
          -73.4430969,
          6.9659802
        ],
        [
          -73.44365,
          6.9651423
        ],
        [
          -73.4444837,
          6.9647205
        ],
        [
          -73.4465628,
          6.9626221
        ],
        [
          -73.4469765,
          6.9617849
        ],
        [
          -73.4471788,
          6.9610029
        ],
        [
          -73.4470046,
          6.9606093
        ],
        [
          -73.4468971,
          6.9601969
        ],
        [
          -73.4469109,
          6.9597714
        ],
        [
          -73.446539,
          6.9595702
        ],
        [
          -73.4461886,
          6.9593307
        ],
        [
          -73.4458907,
          6.9590198
        ],
        [
          -73.4455871,
          6.9587148
        ],
        [
          -73.445283,
          6.9584104
        ],
        [
          -73.4444178,
          6.9575453
        ],
        [
          -73.4440316,
          6.9573552
        ],
        [
          -73.4436455,
          6.9571649
        ],
        [
          -73.4432709,
          6.9569563
        ],
        [
          -73.4429487,
          6.956696
        ],
        [
          -73.4425197,
          6.9566698
        ],
        [
          -73.4421185,
          6.9567841
        ],
        [
          -73.4417876,
          6.9569734
        ],
        [
          -73.4413781,
          6.9568434
        ],
        [
          -73.441002,
          6.9566385
        ],
        [
          -73.4406787,
          6.9563772
        ],
        [
          -73.4402591,
          6.9562643
        ],
        [
          -73.4398892,
          6.95606
        ],
        [
          -73.4395598,
          6.9557901
        ],
        [
          -73.4391745,
          6.9555989
        ],
        [
          -73.4386149,
          6.9553279
        ],
        [
          -73.4383082,
          6.9550456
        ],
        [
          -73.4378786,
          6.9550168
        ],
        [
          -73.4374484,
          6.955024
        ],
        [
          -73.43668,
          6.9550484
        ],
        [
          -73.4362413,
          6.9550663
        ],
        [
          -73.4359213,
          6.9548187
        ],
        [
          -73.4355107,
          6.9547925
        ],
        [
          -73.4350965,
          6.9549108
        ],
        [
          -73.4346995,
          6.9550737
        ],
        [
          -73.4343909,
          6.9553698
        ],
        [
          -73.4339972,
          6.9555469
        ],
        [
          -73.4336875,
          6.955841
        ],
        [
          -73.4330842,
          6.9558731
        ],
        [
          -73.4326564,
          6.9558976
        ],
        [
          -73.4322261,
          6.9559115
        ],
        [
          -73.4317961,
          6.955932
        ],
        [
          -73.4313663,
          6.9559532
        ],
        [
          -73.4309363,
          6.9559672
        ],
        [
          -73.4305057,
          6.9559658
        ],
        [
          -73.4300752,
          6.9559605
        ],
        [
          -73.4296459,
          6.9559754
        ],
        [
          -73.4287932,
          6.9560993
        ],
        [
          -73.4283654,
          6.9561399
        ],
        [
          -73.427935,
          6.9561377
        ],
        [
          -73.4275041,
          6.9561306
        ],
        [
          -73.4270725,
          6.9561171
        ],
        [
          -73.4266435,
          6.9561299
        ],
        [
          -73.42622,
          6.9561972
        ],
        [
          -73.4257997,
          6.9562958
        ],
        [
          -73.4253818,
          6.9564004
        ],
        [
          -73.4249655,
          6.9565402
        ],
        [
          -73.4244017,
          6.9564415
        ],
        [
          -73.424015,
          6.9563305
        ],
        [
          -73.4237838,
          6.9571978
        ],
        [
          -73.4233457,
          6.9579861
        ],
        [
          -73.4227773,
          6.9586863
        ],
        [
          -73.4219609,
          6.9590479
        ],
        [
          -73.421056,
          6.9591387
        ],
        [
          -73.4201538,
          6.9592076
        ],
        [
          -73.4192498,
          6.9592474
        ],
        [
          -73.4185251,
          6.9592617
        ],
        [
          -73.4179918,
          6.9592665
        ],
        [
          -73.4174402,
          6.9592685
        ],
        [
          -73.4165353,
          6.9592624
        ],
        [
          -73.4156305,
          6.9592529
        ],
        [
          -73.4147257,
          6.9592462
        ],
        [
          -73.4138208,
          6.9592481
        ],
        [
          -73.412916,
          6.9592637
        ],
        [
          -73.4120112,
          6.9592596
        ],
        [
          -73.4111063,
          6.9592368
        ],
        [
          -73.4101939,
          6.9591835
        ],
        [
          -73.4092862,
          6.9591136
        ],
        [
          -73.4084031,
          6.9589839
        ],
        [
          -73.4076942,
          6.9584293
        ],
        [
          -73.406983,
          6.9578699
        ],
        [
          -73.4063149,
          6.9572513
        ],
        [
          -73.4060058,
          6.9564166
        ],
        [
          -73.4058249,
          6.9555398
        ],
        [
          -73.4051603,
          6.9549238
        ],
        [
          -73.4042788,
          6.9548109
        ],
        [
          -73.403372,
          6.954827
        ],
        [
          -73.4015623,
          6.9548245
        ],
        [
          -73.4006574,
          6.9548235
        ],
        [
          -73.3997532,
          6.9547903
        ],
        [
          -73.39885,
          6.9548342
        ],
        [
          -73.3979588,
          6.9549935
        ],
        [
          -73.3970837,
          6.9552315
        ],
        [
          -73.3963225,
          6.9557118
        ],
        [
          -73.3956701,
          6.9563322
        ],
        [
          -73.394792,
          6.9565138
        ],
        [
          -73.3938949,
          6.9563737
        ],
        [
          -73.3929653,
          6.9562061
        ],
        [
          -73.3925531,
          6.956738
        ],
        [
          -73.3924137,
          6.9569617
        ],
        [
          -73.392389,
          6.957
        ],
        [
          -73.392389,
          6.9598105
        ],
        [
          -73.3916909,
          6.9646973
        ],
        [
          -73.3895965,
          6.9646973
        ],
        [
          -73.3895767,
          6.9647204
        ],
        [
          -73.3892462,
          6.9648482
        ],
        [
          -73.3891956,
          6.9648601
        ],
        [
          -73.3890092,
          6.9645378
        ],
        [
          -73.3892623,
          6.9642578
        ],
        [
          -73.3895548,
          6.9635101
        ],
        [
          -73.3895107,
          6.9630818
        ],
        [
          -73.3893721,
          6.9626726
        ],
        [
          -73.3890976,
          6.962346
        ],
        [
          -73.3888031,
          6.9620301
        ],
        [
          -73.3885256,
          6.9617012
        ],
        [
          -73.3882958,
          6.9613389
        ],
        [
          -73.3880642,
          6.9609754
        ],
        [
          -73.3876751,
          6.9607966
        ],
        [
          -73.3873421,
          6.9605185
        ],
        [
          -73.3869778,
          6.9603038
        ],
        [
          -73.3865615,
          6.9601923
        ],
        [
          -73.3862197,
          6.9599379
        ],
        [
          -73.3857963,
          6.9598526
        ],
        [
          -73.3853741,
          6.9597658
        ],
        [
          -73.3849517,
          6.9596837
        ],
        [
          -73.3845274,
          6.9596117
        ],
        [
          -73.3841004,
          6.959553
        ],
        [
          -73.3836818,
          6.9594532
        ],
        [
          -73.3833412,
          6.9591942
        ],
        [
          -73.3830721,
          6.9588582
        ],
        [
          -73.3827593,
          6.9585641
        ],
        [
          -73.3825473,
          6.9577483
        ],
        [
          -73.3823026,
          6.9574081
        ],
        [
          -73.3819335,
          6.9571872
        ],
        [
          -73.3816044,
          6.9569162
        ],
        [
          -73.381527,
          6.9564984
        ],
        [
          -73.3815742,
          6.956071
        ],
        [
          -73.3817088,
          6.9556625
        ],
        [
          -73.3817958,
          6.9552419
        ],
        [
          -73.3818055,
          6.9548124
        ],
        [
          -73.3817187,
          6.9543914
        ],
        [
          -73.3814827,
          6.9540427
        ],
        [
          -73.3810881,
          6.953874
        ],
        [
          -73.3806832,
          6.9537291
        ],
        [
          -73.3803951,
          6.9534292
        ],
        [
          -73.3804372,
          6.953026
        ],
        [
          -73.3808003,
          6.9527962
        ],
        [
          -73.380854,
          6.9524468
        ],
        [
          -73.3804976,
          6.952208
        ],
        [
          -73.3801136,
          6.9520137
        ],
        [
          -73.3797347,
          6.9518102
        ],
        [
          -73.3793936,
          6.9515482
        ],
        [
          -73.379063,
          6.9512726
        ],
        [
          -73.37874,
          6.9509883
        ],
        [
          -73.3784291,
          6.9506908
        ],
        [
          -73.3781369,
          6.9503749
        ],
        [
          -73.3778672,
          6.9500397
        ],
        [
          -73.3776153,
          6.9496908
        ],
        [
          -73.37737,
          6.9493371
        ],
        [
          -73.3771364,
          6.9489758
        ],
        [
          -73.3769078,
          6.9486112
        ],
        [
          -73.3766674,
          6.9482542
        ],
        [
          -73.3764806,
          6.9478678
        ],
        [
          -73.3764147,
          6.9474435
        ],
        [
          -73.3762724,
          6.947074
        ],
        [
          -73.3759804,
          6.946754
        ],
        [
          -73.3755779,
          6.9466603
        ],
        [
          -73.3751482,
          6.946689
        ],
        [
          -73.3748097,
          6.9464579
        ],
        [
          -73.3745594,
          6.9461951
        ],
        [
          -73.3735702,
          6.9464097
        ],
        [
          -73.372622,
          6.9464143
        ],
        [
          -73.3719708,
          6.9466783
        ],
        [
          -73.3717617,
          6.946763
        ],
        [
          -73.3716744,
          6.9468315
        ],
        [
          -73.3709888,
          6.9473697
        ],
        [
          -73.3700411,
          6.9474604
        ],
        [
          -73.3681439,
          6.9472973
        ],
        [
          -73.3671091,
          6.9472162
        ],
        [
          -73.3661596,
          6.9469624
        ],
        [
          -73.3652106,
          6.9467947
        ],
        [
          -73.3633142,
          6.9468038
        ],
        [
          -73.3623669,
          6.9469807
        ],
        [
          -73.3614199,
          6.9472437
        ],
        [
          -73.3604726,
          6.9474205
        ],
        [
          -73.3596122,
          6.9477692
        ],
        [
          -73.3586649,
          6.947946
        ],
        [
          -73.3577167,
          6.9479506
        ],
        [
          -73.3574535,
          6.9470044
        ],
        [
          -73.3575351,
          6.9460565
        ],
        [
          -73.357962,
          6.945193
        ],
        [
          -73.3588219,
          6.9447582
        ],
        [
          -73.359422,
          6.9440662
        ],
        [
          -73.3599354,
          6.9432885
        ],
        [
          -73.3601895,
          6.9423398
        ],
        [
          -73.3608757,
          6.9416474
        ],
        [
          -73.3614758,
          6.9409554
        ],
        [
          -73.3619022,
          6.9400059
        ],
        [
          -73.3625018,
          6.9392278
        ],
        [
          -73.3630145,
          6.9382778
        ],
        [
          -73.3637011,
          6.9376715
        ],
        [
          -73.3638688,
          6.9366974
        ],
        [
          -73.3632617,
          6.9359251
        ],
        [
          -73.362224,
          6.935241
        ],
        [
          -73.3614478,
          6.9351586
        ],
        [
          -73.3604997,
          6.9351631
        ],
        [
          -73.3595498,
          6.9348231
        ],
        [
          -73.3586013,
          6.9347416
        ],
        [
          -73.3577376,
          6.9344012
        ],
        [
          -73.3571309,
          6.933715
        ],
        [
          -73.356782,
          6.9328553
        ],
        [
          -73.3564961,
          6.9322718
        ],
        [
          -73.3565851,
          6.9319633
        ],
        [
          -73.3566155,
          6.9315361
        ],
        [
          -73.3566114,
          6.9311034
        ],
        [
          -73.3566192,
          6.9306728
        ],
        [
          -73.3566247,
          6.9302421
        ],
        [
          -73.3566113,
          6.9298125
        ],
        [
          -73.3560607,
          6.9290534
        ],
        [
          -73.3560083,
          6.928346
        ],
        [
          -73.3560371,
          6.927443
        ],
        [
          -73.3562742,
          6.9265729
        ],
        [
          -73.356745,
          6.9258012
        ],
        [
          -73.3573388,
          6.925119
        ],
        [
          -73.3579809,
          6.924481
        ],
        [
          -73.3587132,
          6.9240075
        ],
        [
          -73.3595217,
          6.9236666
        ],
        [
          -73.3600628,
          6.9229354
        ],
        [
          -73.3601172,
          6.922039
        ],
        [
          -73.3599548,
          6.9211485
        ],
        [
          -73.3597569,
          6.9202662
        ],
        [
          -73.3595148,
          6.919395
        ],
        [
          -73.3591845,
          6.9185654
        ],
        [
          -73.3584174,
          6.918081
        ],
        [
          -73.3577611,
          6.9174567
        ],
        [
          -73.3571137,
          6.9168251
        ],
        [
          -73.3564933,
          6.9161665
        ],
        [
          -73.3560253,
          6.9154103
        ],
        [
          -73.3555802,
          6.9146549
        ],
        [
          -73.3550595,
          6.9139591
        ],
        [
          -73.3551605,
          6.9137653
        ],
        [
          -73.3527291,
          6.9139543
        ],
        [
          -73.3516946,
          6.914125
        ],
        [
          -73.3513713,
          6.9141576
        ],
        [
          -73.3511044,
          6.9142951
        ],
        [
          -73.3508282,
          6.9145336
        ],
        [
          -73.3505611,
          6.9147813
        ],
        [
          -73.3504716,
          6.9148704
        ],
        [
          -73.3498484,
          6.9151651
        ],
        [
          -73.3494185,
          6.9151898
        ],
        [
          -73.3489885,
          6.9151888
        ],
        [
          -73.3485585,
          6.9151729
        ],
        [
          -73.3481284,
          6.9151531
        ],
        [
          -73.3476983,
          6.9151375
        ],
        [
          -73.347268,
          6.9151373
        ],
        [
          -73.3468376,
          6.9151383
        ],
        [
          -73.3464078,
          6.9151182
        ],
        [
          -73.3459773,
          6.9151014
        ],
        [
          -73.3455493,
          6.9150625
        ],
        [
          -73.3451249,
          6.9149915
        ],
        [
          -73.344701,
          6.9149155
        ],
        [
          -73.3442746,
          6.9148559
        ],
        [
          -73.3438443,
          6.9148156
        ],
        [
          -73.3434279,
          6.914854
        ],
        [
          -73.3426451,
          6.9147479
        ],
        [
          -73.3416958,
          6.914494
        ],
        [
          -73.3409175,
          6.9139809
        ],
        [
          -73.3403109,
          6.9132946
        ],
        [
          -73.339962,
          6.9124349
        ],
        [
          -73.3390919,
          6.9107163
        ],
        [
          -73.338571,
          6.9099435
        ],
        [
          -73.3383941,
          6.9089969
        ],
        [
          -73.337868,
          6.9071043
        ],
        [
          -73.3375191,
          6.9062446
        ],
        [
          -73.337256,
          6.9052983
        ],
        [
          -73.3371653,
          6.9043512
        ],
        [
          -73.3366445,
          6.9035785
        ],
        [
          -73.3361184,
          6.9016859
        ],
        [
          -73.3356833,
          6.9008266
        ],
        [
          -73.3351612,
          6.8997782
        ],
        [
          -73.3348119,
          6.8988323
        ],
        [
          -73.3347212,
          6.8978852
        ],
        [
          -73.334372,
          6.8969393
        ],
        [
          -73.3341089,
          6.8959931
        ],
        [
          -73.3340183,
          6.895046
        ],
        [
          -73.3335832,
          6.8941866
        ],
        [
          -73.3330624,
          6.8934139
        ],
        [
          -73.3327993,
          6.8924676
        ],
        [
          -73.3327087,
          6.8915205
        ],
        [
          -73.3326997,
          6.8896255
        ],
        [
          -73.3325229,
          6.8886788
        ],
        [
          -73.3325094,
          6.8858363
        ],
        [
          -73.3330229,
          6.8850586
        ],
        [
          -73.3333636,
          6.8841956
        ],
        [
          -73.3338673,
          6.8813507
        ],
        [
          -73.3346296,
          6.8785045
        ],
        [
          -73.3350564,
          6.8776411
        ],
        [
          -73.3353105,
          6.8766924
        ],
        [
          -73.3359972,
          6.8760862
        ],
        [
          -73.3367704,
          6.8755657
        ],
        [
          -73.3372839,
          6.8747881
        ],
        [
          -73.3374518,
          6.8738397
        ],
        [
          -73.3374473,
          6.8728922
        ],
        [
          -73.337788,
          6.8720292
        ],
        [
          -73.3381283,
          6.8710801
        ],
        [
          -73.3382092,
          6.86996
        ],
        [
          -73.3383771,
          6.8690116
        ],
        [
          -73.3385446,
          6.8679772
        ],
        [
          -73.338627,
          6.8671929
        ],
        [
          -73.3386226,
          6.8662454
        ],
        [
          -73.3388766,
          6.8652967
        ],
        [
          -73.3393901,
          6.8645191
        ],
        [
          -73.339817,
          6.8636557
        ],
        [
          -73.340071,
          6.8627069
        ],
        [
          -73.3402385,
          6.8616725
        ],
        [
          -73.3407467,
          6.8597751
        ],
        [
          -73.3410873,
          6.8589121
        ],
        [
          -73.3412552,
          6.8579638
        ],
        [
          -73.3415955,
          6.8570146
        ],
        [
          -73.3427956,
          6.8556308
        ],
        [
          -73.3429634,
          6.8546825
        ],
        [
          -73.3426098,
          6.8527891
        ],
        [
          -73.3425785,
          6.8461566
        ],
        [
          -73.3436053,
          6.8446013
        ],
        [
          -73.3442054,
          6.8439094
        ],
        [
          -73.344892,
          6.8433032
        ],
        [
          -73.345492,
          6.8426112
        ],
        [
          -73.3460054,
          6.8418336
        ],
        [
          -73.3466916,
          6.8411412
        ],
        [
          -73.3474648,
          6.8406208
        ],
        [
          -73.3479782,
          6.8398431
        ],
        [
          -73.3481416,
          6.8379473
        ],
        [
          -73.3481237,
          6.8341573
        ],
        [
          -73.3482053,
          6.8331922
        ],
        [
          -73.3494045,
          6.8316361
        ],
        [
          -73.3498314,
          6.8307727
        ],
        [
          -73.3501716,
          6.8298235
        ],
        [
          -73.3502533,
          6.8288757
        ],
        [
          -73.3505074,
          6.8279269
        ],
        [
          -73.351107,
          6.8271489
        ],
        [
          -73.3515334,
          6.8261993
        ],
        [
          -73.3516147,
          6.8251653
        ],
        [
          -73.3518687,
          6.8242166
        ],
        [
          -73.3519504,
          6.8232687
        ],
        [
          -73.3522862,
          6.8213721
        ],
        [
          -73.3522594,
          6.8156871
        ],
        [
          -73.3525044,
          6.8147798
        ],
        [
          -73.3525951,
          6.8137905
        ],
        [
          -73.3525907,
          6.8128431
        ],
        [
          -73.3530175,
          6.8119797
        ],
        [
          -73.3535309,
          6.811202
        ],
        [
          -73.3537849,
          6.8102533
        ],
        [
          -73.3538666,
          6.8093054
        ],
        [
          -73.3538622,
          6.8083579
        ],
        [
          -73.3541979,
          6.8064613
        ],
        [
          -73.3542797,
          6.8055134
        ],
        [
          -73.3542707,
          6.8036184
        ],
        [
          -73.3543524,
          6.8026705
        ],
        [
          -73.3546927,
          6.8017214
        ],
        [
          -73.3552063,
          6.8010041
        ],
        [
          -73.3556327,
          6.8000545
        ],
        [
          -73.3559734,
          6.7991916
        ],
        [
          -73.3561413,
          6.7982433
        ],
        [
          -73.3566546,
          6.7974656
        ],
        [
          -73.3574278,
          6.7969451
        ],
        [
          -73.3578545,
          6.7960818
        ],
        [
          -73.3581952,
          6.7952188
        ],
        [
          -73.3587086,
          6.7944411
        ],
        [
          -73.3594707,
          6.791595
        ],
        [
          -73.3598975,
          6.7907316
        ],
        [
          -73.3599792,
          6.7897837
        ],
        [
          -73.3601471,
          6.7888354
        ],
        [
          -73.3605739,
          6.7879721
        ],
        [
          -73.3606556,
          6.7870242
        ],
        [
          -73.3604788,
          6.7860775
        ],
        [
          -73.36013,
          6.7852178
        ],
        [
          -73.3594378,
          6.7846181
        ],
        [
          -73.3586595,
          6.7840188
        ],
        [
          -73.3578815,
          6.7835056
        ],
        [
          -73.3577356,
          6.7834481
        ],
        [
          -73.3570182,
          6.7831651
        ],
        [
          -73.3560691,
          6.7829112
        ],
        [
          -73.3552054,
          6.7824845
        ],
        [
          -73.3542559,
          6.7821444
        ],
        [
          -73.3533926,
          6.7818039
        ],
        [
          -73.3524439,
          6.7816361
        ],
        [
          -73.3514956,
          6.7815544
        ],
        [
          -73.3504604,
          6.7813008
        ],
        [
          -73.349597,
          6.7809603
        ],
        [
          -73.348648,
          6.7807064
        ],
        [
          -73.3477846,
          6.7803659
        ],
        [
          -73.3471771,
          6.7797426
        ],
        [
          -73.3453867,
          6.7799767
        ],
        [
          -73.3443391,
          6.7800101
        ],
        [
          -73.3428906,
          6.7789249
        ],
        [
          -73.3413703,
          6.7776404
        ],
        [
          -73.3411193,
          6.7771776
        ],
        [
          -73.3407209,
          6.7770285
        ],
        [
          -73.3400612,
          6.7762801
        ],
        [
          -73.339248,
          6.7758527
        ],
        [
          -73.3378058,
          6.7747762
        ],
        [
          -73.337246,
          6.7749116
        ],
        [
          -73.3368704,
          6.7747726
        ],
        [
          -73.3365768,
          6.774451
        ],
        [
          -73.336316,
          6.7741127
        ],
        [
          -73.3361806,
          6.7737086
        ],
        [
          -73.3361185,
          6.7732794
        ],
        [
          -73.336004,
          6.7728469
        ],
        [
          -73.3360178,
          6.7723437
        ],
        [
          -73.3363157,
          6.7720161
        ],
        [
          -73.3364485,
          6.7716054
        ],
        [
          -73.3365859,
          6.7711964
        ],
        [
          -73.3367226,
          6.7707872
        ],
        [
          -73.336875,
          6.7703838
        ],
        [
          -73.3369009,
          6.7702884
        ],
        [
          -73.3377866,
          6.7697264
        ],
        [
          -73.3380338,
          6.7689831
        ],
        [
          -73.3381555,
          6.7687225
        ],
        [
          -73.3384981,
          6.768413
        ],
        [
          -73.3388687,
          6.7681922
        ],
        [
          -73.3392356,
          6.7679665
        ],
        [
          -73.3395958,
          6.7678786
        ],
        [
          -73.3398389,
          6.7677386
        ],
        [
          -73.3401362,
          6.7672143
        ],
        [
          -73.3402661,
          6.7668764
        ],
        [
          -73.3401802,
          6.766317
        ],
        [
          -73.3399361,
          6.7649213
        ],
        [
          -73.3400863,
          6.7632273
        ],
        [
          -73.340537,
          6.7625455
        ],
        [
          -73.3403707,
          6.7605798
        ],
        [
          -73.3401098,
          6.7599065
        ],
        [
          -73.3397269,
          6.7592
        ],
        [
          -73.339568,
          6.7575519
        ],
        [
          -73.3386165,
          6.7571437
        ],
        [
          -73.3378762,
          6.7564832
        ],
        [
          -73.3357412,
          6.7555935
        ],
        [
          -73.3341909,
          6.7542458
        ],
        [
          -73.3334304,
          6.7540859
        ],
        [
          -73.3332534,
          6.7539914
        ],
        [
          -73.3330536,
          6.7537943
        ],
        [
          -73.3328269,
          6.7537743
        ],
        [
          -73.3316186,
          6.7526769
        ],
        [
          -73.3308911,
          6.7518199
        ],
        [
          -73.3304197,
          6.7516727
        ],
        [
          -73.3286119,
          6.7504794
        ],
        [
          -73.3271313,
          6.750245
        ],
        [
          -73.3250278,
          6.7504481
        ],
        [
          -73.3223194,
          6.7485243
        ],
        [
          -73.3205867,
          6.7478158
        ],
        [
          -73.3202903,
          6.7478504
        ],
        [
          -73.3198008,
          6.7475721
        ],
        [
          -73.3193663,
          6.7477226
        ],
        [
          -73.3189794,
          6.7479656
        ],
        [
          -73.3187199,
          6.7486122
        ],
        [
          -73.3179688,
          6.7493447
        ],
        [
          -73.3176363,
          6.7494539
        ],
        [
          -73.3173841,
          6.7493234
        ],
        [
          -73.3169624,
          6.7494385
        ],
        [
          -73.3165634,
          6.7489851
        ],
        [
          -73.3164775,
          6.7483885
        ],
        [
          -73.3159813,
          6.7482047
        ],
        [
          -73.3160055,
          6.7480236
        ],
        [
          -73.3157104,
          6.7478185
        ],
        [
          -73.31471,
          6.7476427
        ],
        [
          -73.3140475,
          6.7474749
        ],
        [
          -73.3137202,
          6.7471366
        ],
        [
          -73.3135191,
          6.7467211
        ],
        [
          -73.3128673,
          6.7462309
        ],
        [
          -73.3124837,
          6.746223
        ],
        [
          -73.3122316,
          6.7460978
        ],
        [
          -73.311258,
          6.7463988
        ],
        [
          -73.310705,
          6.7464188
        ],
        [
          -73.3102915,
          6.7458772
        ],
        [
          -73.3096627,
          6.7454073
        ],
        [
          -73.3091151,
          6.7452366
        ],
        [
          -73.3084631,
          6.7442199
        ],
        [
          -73.3082422,
          6.7441118
        ],
        [
          -73.307932,
          6.7443531
        ],
        [
          -73.3076504,
          6.7442412
        ],
        [
          -73.3074465,
          6.7439935
        ],
        [
          -73.3070907,
          6.7440259
        ],
        [
          -73.3065524,
          6.7434939
        ],
        [
          -73.3059606,
          6.743546
        ],
        [
          -73.3056497,
          6.7433986
        ],
        [
          -73.3050862,
          6.7434341
        ],
        [
          -73.304354,
          6.7430932
        ],
        [
          -73.3043781,
          6.7427868
        ],
        [
          -73.3041125,
          6.7424852
        ],
        [
          -73.3034589,
          6.7410589
        ],
        [
          -73.303384,
          6.7405787
        ],
        [
          -73.3030088,
          6.7397759
        ],
        [
          -73.3027,
          6.7394749
        ],
        [
          -73.3027554,
          6.7391616
        ],
        [
          -73.3023986,
          6.7386182
        ],
        [
          -73.3017368,
          6.7383004
        ],
        [
          -73.3016906,
          6.7379462
        ],
        [
          -73.3018006,
          6.7368673
        ],
        [
          -73.3016578,
          6.7360673
        ],
        [
          -73.3019075,
          6.7357831
        ],
        [
          -73.3017415,
          6.735246
        ],
        [
          -73.3011675,
          6.7344069
        ],
        [
          -73.3008917,
          6.7342597
        ],
        [
          -73.3008394,
          6.7338232
        ],
        [
          -73.3003145,
          6.732505
        ],
        [
          -73.2999785,
          6.7322879
        ],
        [
          -73.2998752,
          6.7319567
        ],
        [
          -73.3001603,
          6.7318251
        ],
        [
          -73.300423,
          6.7300536
        ],
        [
          -73.3001743,
          6.7296455
        ],
        [
          -73.3005274,
          6.7282961
        ],
        [
          -73.3010815,
          6.7274559
        ],
        [
          -73.3012797,
          6.7264277
        ],
        [
          -73.3010754,
          6.7256391
        ],
        [
          -73.3005078,
          6.7250733
        ],
        [
          -73.2998199,
          6.7239825
        ],
        [
          -73.2989807,
          6.7232565
        ],
        [
          -73.2987714,
          6.7227319
        ],
        [
          -73.2985864,
          6.721567
        ],
        [
          -73.2979954,
          6.721125
        ],
        [
          -73.2975184,
          6.7198535
        ],
        [
          -73.2974338,
          6.71926
        ],
        [
          -73.2971092,
          6.7185875
        ],
        [
          -73.2964969,
          6.7185604
        ],
        [
          -73.2942721,
          6.7175207
        ],
        [
          -73.2938804,
          6.7167496
        ],
        [
          -73.2934419,
          6.7164339
        ],
        [
          -73.2930239,
          6.7157538
        ],
        [
          -73.2930002,
          6.7150574
        ],
        [
          -73.292873,
          6.7146678
        ],
        [
          -73.2926478,
          6.7144725
        ],
        [
          -73.2922762,
          6.7134228
        ],
        [
          -73.2915641,
          6.7127143
        ],
        [
          -73.2912084,
          6.712596
        ],
        [
          -73.2904936,
          6.7125636
        ],
        [
          -73.2902637,
          6.7123593
        ],
        [
          -73.2895026,
          6.7123083
        ],
        [
          -73.2890749,
          6.7121424
        ],
        [
          -73.2883641,
          6.7122302
        ],
        [
          -73.2879925,
          6.7120846
        ],
        [
          -73.2872545,
          6.7111932
        ],
        [
          -73.2871941,
          6.7102412
        ],
        [
          -73.2867566,
          6.709372
        ],
        [
          -73.2861203,
          6.7082799
        ],
        [
          -73.2861552,
          6.7076786
        ],
        [
          -73.2860389,
          6.7072227
        ],
        [
          -73.286123,
          6.7068714
        ],
        [
          -73.2857685,
          6.7062296
        ],
        [
          -73.2857475,
          6.7057766
        ],
        [
          -73.2861865,
          6.7051789
        ],
        [
          -73.2861428,
          6.7047162
        ],
        [
          -73.2858121,
          6.7039098
        ],
        [
          -73.2852083,
          6.7030728
        ],
        [
          -73.2847685,
          6.70287
        ],
        [
          -73.2845184,
          6.7031856
        ],
        [
          -73.284078,
          6.7031792
        ],
        [
          -73.2838807,
          6.7032299
        ],
        [
          -73.2835266,
          6.7031394
        ],
        [
          -73.2832397,
          6.7027633
        ],
        [
          -73.2825603,
          6.7023323
        ],
        [
          -73.2813191,
          6.7024947
        ],
        [
          -73.2810751,
          6.7024468
        ],
        [
          -73.2809302,
          6.702239
        ],
        [
          -73.2810649,
          6.7018332
        ],
        [
          -73.2808304,
          6.7015863
        ],
        [
          -73.2804529,
          6.7013491
        ],
        [
          -73.2796127,
          6.7013862
        ],
        [
          -73.2791868,
          6.7009976
        ],
        [
          -73.2790527,
          6.7006566
        ],
        [
          -73.278838,
          6.7004587
        ],
        [
          -73.2776854,
          6.700278
        ],
        [
          -73.2769882,
          6.6997149
        ],
        [
          -73.2763517,
          6.6996476
        ],
        [
          -73.2758957,
          6.6992128
        ],
        [
          -73.2753185,
          6.6989025
        ],
        [
          -73.274425,
          6.6987017
        ],
        [
          -73.2733333,
          6.6979389
        ],
        [
          -73.2732559,
          6.6976389
        ],
        [
          -73.2723009,
          6.6966418
        ],
        [
          -73.2721621,
          6.6955491
        ],
        [
          -73.2714835,
          6.6949239
        ],
        [
          -73.2712314,
          6.6949852
        ],
        [
          -73.2710701,
          6.6951426
        ],
        [
          -73.27099,
          6.6956325
        ],
        [
          -73.2708558,
          6.6956938
        ],
        [
          -73.2706413,
          6.6956005
        ],
        [
          -73.2701702,
          6.6951628
        ],
        [
          -73.269562,
          6.6951672
        ],
        [
          -73.2688526,
          6.6949458
        ],
        [
          -73.268187,
          6.6954753
        ],
        [
          -73.2678142,
          6.6955792
        ],
        [
          -73.2675084,
          6.6958643
        ],
        [
          -73.2670062,
          6.6959009
        ],
        [
          -73.2663867,
          6.6957267
        ],
        [
          -73.265408,
          6.6949362
        ],
        [
          -73.2649359,
          6.6947116
        ],
        [
          -73.2644668,
          6.6945803
        ],
        [
          -73.2641611,
          6.6946948
        ],
        [
          -73.263689,
          6.6953075
        ],
        [
          -73.2638353,
          6.6956026
        ],
        [
          -73.2637164,
          6.6959542
        ],
        [
          -73.2629756,
          6.6959958
        ],
        [
          -73.2617444,
          6.695478
        ],
        [
          -73.260246,
          6.6954963
        ],
        [
          -73.2600074,
          6.6957104
        ],
        [
          -73.2595753,
          6.6957385
        ],
        [
          -73.2582153,
          6.6947249
        ],
        [
          -73.2576395,
          6.6965915
        ],
        [
          -73.2575977,
          6.6986321
        ],
        [
          -73.2583487,
          6.7006779
        ],
        [
          -73.2581341,
          6.7014984
        ],
        [
          -73.2576932,
          6.7017808
        ],
        [
          -73.2560087,
          6.7020898
        ],
        [
          -73.2547224,
          6.7032779
        ],
        [
          -73.2548374,
          6.7042287
        ],
        [
          -73.2548569,
          6.70439
        ],
        [
          -73.2548607,
          6.7044213
        ],
        [
          -73.2548989,
          6.7047373
        ],
        [
          -73.2549138,
          6.7048601
        ],
        [
          -73.2549454,
          6.7052668
        ],
        [
          -73.2551157,
          6.7074574
        ],
        [
          -73.2551023,
          6.7077148
        ],
        [
          -73.2550399,
          6.7089104
        ],
        [
          -73.2541632,
          6.7103594
        ],
        [
          -73.2534969,
          6.7110458
        ],
        [
          -73.2518787,
          6.7127129
        ],
        [
          -73.2510316,
          6.7127292
        ],
        [
          -73.2497825,
          6.7129288
        ],
        [
          -73.2496069,
          6.713145
        ],
        [
          -73.2493043,
          6.7135177
        ],
        [
          -73.2490451,
          6.7138579
        ],
        [
          -73.2487984,
          6.7140309
        ],
        [
          -73.247352,
          6.7150455
        ],
        [
          -73.2464382,
          6.7156865
        ],
        [
          -73.2462634,
          6.7156729
        ],
        [
          -73.2440893,
          6.7155032
        ],
        [
          -73.2426371,
          6.7155353
        ],
        [
          -73.241633,
          6.7156906
        ],
        [
          -73.2412336,
          6.7157524
        ],
        [
          -73.2391065,
          6.7170098
        ],
        [
          -73.237644,
          6.7174586
        ],
        [
          -73.2358594,
          6.7184595
        ],
        [
          -73.2346109,
          6.7193295
        ],
        [
          -73.2334356,
          6.7210794
        ],
        [
          -73.2325351,
          6.7234377
        ],
        [
          -73.2310428,
          6.7257871
        ],
        [
          -73.2297564,
          6.7266981
        ],
        [
          -73.2283592,
          6.7274681
        ],
        [
          -73.2270849,
          6.7275398
        ],
        [
          -73.226377,
          6.7282294
        ],
        [
          -73.2232874,
          6.7347382
        ],
        [
          -73.2221389,
          6.7365539
        ],
        [
          -73.2204105,
          6.7383704
        ],
        [
          -73.2198485,
          6.7390517
        ],
        [
          -73.218773,
          6.7403555
        ],
        [
          -73.217609,
          6.7434208
        ],
        [
          -73.2170094,
          6.7475358
        ],
        [
          -73.2171714,
          6.750554
        ],
        [
          -73.216761,
          6.7535738
        ],
        [
          -73.2148754,
          6.7562326
        ],
        [
          -73.2139169,
          6.7599845
        ],
        [
          -73.2137457,
          6.7616026
        ],
        [
          -73.213633,
          6.7623964
        ],
        [
          -73.2133863,
          6.7629823
        ],
        [
          -73.2127021,
          6.7637793
        ],
        [
          -73.2121199,
          6.7647477
        ],
        [
          -73.2116749,
          6.7663704
        ],
        [
          -73.2111382,
          6.76801
        ],
        [
          -73.2104323,
          6.7693103
        ],
        [
          -73.2101882,
          6.769526
        ],
        [
          -73.2098636,
          6.7696299
        ],
        [
          -73.2094222,
          6.7696273
        ],
        [
          -73.2088954,
          6.7696059
        ],
        [
          -73.2079566,
          6.7694195
        ],
        [
          -73.2068038,
          6.7692138
        ],
        [
          -73.205697,
          6.7691277
        ],
        [
          -73.2040648,
          6.7691263
        ],
        [
          -73.2026164,
          6.768583
        ],
        [
          -73.2008515,
          6.7679917
        ],
        [
          -73.1997239,
          6.7679874
        ],
        [
          -73.1989823,
          6.7679806
        ],
        [
          -73.1983112,
          6.7680826
        ],
        [
          -73.1984622,
          6.7687359
        ],
        [
          -73.198642,
          6.7695136
        ],
        [
          -73.1989258,
          6.7706143
        ],
        [
          -73.1993045,
          6.7720906
        ],
        [
          -73.1999302,
          6.7742703
        ],
        [
          -73.200177,
          6.7763158
        ],
        [
          -73.2002521,
          6.7785212
        ],
        [
          -73.2004345,
          6.7802684
        ],
        [
          -73.200649,
          6.7827614
        ],
        [
          -73.2008636,
          6.7844873
        ],
        [
          -73.2008636,
          6.7856911
        ],
        [
          -73.2008422,
          6.7866819
        ],
        [
          -73.2006219,
          6.7873653
        ],
        [
          -73.2000053,
          6.7879604
        ],
        [
          -73.1985956,
          6.7889629
        ],
        [
          -73.1981599,
          6.7898034
        ],
        [
          -73.1980746,
          6.7903161
        ],
        [
          -73.197989,
          6.7910244
        ],
        [
          -73.198068,
          6.7916322
        ],
        [
          -73.1983839,
          6.7921812
        ],
        [
          -73.1988973,
          6.7928086
        ],
        [
          -73.1990552,
          6.7937693
        ],
        [
          -73.199075,
          6.7945732
        ],
        [
          -73.1989367,
          6.795926
        ],
        [
          -73.198838,
          6.7969456
        ],
        [
          -73.1986801,
          6.7979847
        ],
        [
          -73.1984751,
          6.7985238
        ],
        [
          -73.1982203,
          6.7988514
        ],
        [
          -73.1977724,
          6.799376
        ],
        [
          -73.197061,
          6.7997885
        ],
        [
          -73.1956861,
          6.8001399
        ],
        [
          -73.1948555,
          6.8004036
        ],
        [
          -73.193965,
          6.8008724
        ],
        [
          -73.1935845,
          6.8010999
        ],
        [
          -73.1932613,
          6.8013966
        ],
        [
          -73.1925138,
          6.8022306
        ],
        [
          -73.1916716,
          6.8029817
        ],
        [
          -73.1909391,
          6.8035903
        ],
        [
          -73.1908335,
          6.8037093
        ],
        [
          -73.1898561,
          6.8048109
        ],
        [
          -73.1893704,
          6.8058593
        ],
        [
          -73.1888485,
          6.8069227
        ],
        [
          -73.1883078,
          6.8078757
        ],
        [
          -73.1873211,
          6.8088823
        ],
        [
          -73.1861991,
          6.8095266
        ],
        [
          -73.1854773,
          6.8098629
        ],
        [
          -73.1849784,
          6.8101878
        ],
        [
          -73.1844161,
          6.8107175
        ],
        [
          -73.1840987,
          6.8111812
        ],
        [
          -73.1833162,
          6.8142215
        ],
        [
          -73.1828499,
          6.8160958
        ],
        [
          -73.1826782,
          6.817225
        ],
        [
          -73.1825495,
          6.8183542
        ],
        [
          -73.1822113,
          6.8208733
        ],
        [
          -73.1818466,
          6.8226713
        ],
        [
          -73.1813516,
          6.8244433
        ],
        [
          -73.1810259,
          6.825297
        ],
        [
          -73.1804397,
          6.8257109
        ],
        [
          -73.179677,
          6.8258715
        ],
        [
          -73.1787592,
          6.8259437
        ],
        [
          -73.1784154,
          6.8260492
        ],
        [
          -73.1780427,
          6.8261636
        ],
        [
          -73.1771309,
          6.8264611
        ],
        [
          -73.1764795,
          6.8269267
        ],
        [
          -73.1758762,
          6.8276222
        ],
        [
          -73.17573,
          6.8285375
        ],
        [
          -73.175962,
          6.8294971
        ],
        [
          -73.1762826,
          6.8304124
        ],
        [
          -73.1761324,
          6.8310835
        ],
        [
          -73.1757557,
          6.8322625
        ],
        [
          -73.1750702,
          6.8335229
        ],
        [
          -73.1743407,
          6.8343858
        ],
        [
          -73.1730747,
          6.8356854
        ],
        [
          -73.1718838,
          6.8370809
        ],
        [
          -73.171122,
          6.8379864
        ],
        [
          -73.1703817,
          6.8395949
        ],
        [
          -73.1699109,
          6.8407462
        ],
        [
          -73.1692177,
          6.8415443
        ],
        [
          -73.1690728,
          6.8424604
        ],
        [
          -73.1689699,
          6.8431503
        ],
        [
          -73.1690192,
          6.8442926
        ],
        [
          -73.1695449,
          6.8453312
        ],
        [
          -73.1695416,
          6.8459039
        ],
        [
          -73.1695395,
          6.8462793
        ],
        [
          -73.1692659,
          6.8469504
        ],
        [
          -73.1684658,
          6.8480854
        ],
        [
          -73.1670281,
          6.8493211
        ],
        [
          -73.1667062,
          6.8502159
        ],
        [
          -73.1667277,
          6.8513876
        ],
        [
          -73.1674143,
          6.8526979
        ],
        [
          -73.1679722,
          6.8537737
        ],
        [
          -73.1686267,
          6.8557444
        ],
        [
          -73.1690237,
          6.8572996
        ],
        [
          -73.1689807,
          6.8585405
        ],
        [
          -73.1686482,
          6.8605591
        ],
        [
          -73.1687555,
          6.8614113
        ],
        [
          -73.1692592,
          6.8629453
        ],
        [
          -73.1698498,
          6.8642766
        ],
        [
          -73.1707939,
          6.8667266
        ],
        [
          -73.1709441,
          6.8676533
        ],
        [
          -73.1708583,
          6.8686226
        ],
        [
          -73.1707939,
          6.8694109
        ],
        [
          -73.1708765,
          6.8704656
        ],
        [
          -73.1711104,
          6.8717862
        ],
        [
          -73.171266,
          6.8731709
        ],
        [
          -73.1712231,
          6.875035
        ],
        [
          -73.1712628,
          6.8774745
        ],
        [
          -73.1715867,
          6.8806184
        ],
        [
          -73.1719382,
          6.8815846
        ],
        [
          -73.1722491,
          6.8821617
        ],
        [
          -73.1726816,
          6.8825374
        ],
        [
          -73.1731818,
          6.8825643
        ],
        [
          -73.1740334,
          6.8824301
        ],
        [
          -73.1750607,
          6.8826448
        ],
        [
          -73.1755068,
          6.8830474
        ],
        [
          -73.1758853,
          6.8842284
        ]
      ]
    ]
  }
},
{
  "type": "Feature",
  "id": "node/11221194033",
  "properties": {
    "id": "node/11221194033"
  },
  "geometry": {
    "type": "Point",
    "coordinates": [
      -73.2686529,
      6.8166596
    ]
  }
}
]
}
